#dP2019  8 22  0  0  0.00000000      96 __u+U IGS08 FIT  IAC
## 2067 345600.00000000   900.00000000 58717 0.0000000000000
+  114   C01C02C03C04C05C06C07C08C09C10C11C12C13C14C16C19C20
+        C21C22C23C24C25C26C27C28C29C30C32C33C34C35C36E01E02
+        E03E04E05E07E08E09E11E12E13E14E15E18E19E21E24E25E26
+        E27E30E31E33E36G01G02G03G04G05G06G07G08G09G10G11G12
+        G13G14G15G16G17G18G19G20G21G22G23G24G25G26G27G28G29
+        G30G31G32J01J02J03J07R01R02R03R04R05R07R08R09R11R12
+        R13R14R15R16R17R18R19R20R21R22R23R24  0  0  0  0  0
++        13 13 13 13 12  8  8  8  8  8  7  7  7  8  8  7  7
++         7  7  7  7  8  8  7  7  8  7  8  7  8  9  8  4  4
++         4  4  4  4  4  4  4  4  4  4  4  4  4  4  4  4  4
++         4  4  4  4  4  3  3  3  3  3  3  3  3  3  3  3  3
++         3  3  3  3  3  3  3  3  3  3  3  3  3  3  3  3  3
++         3  3  3 10  9  8 13  7  5  5  5  5  5  5  5  5  5
++         6  5  5  6  5  5  6  6  5  5  5  6  0  0  0  0  0
%c M  cc GPS ccc cccc cccc cccc cccc ccccc ccccc ccccc ccccc
%c cc cc ccc ccc cccc cccc cccc cccc ccccc ccccc ccccc ccccc
%f  1.2500000  1.025000000  0.00000000000  0.000000000000000
%f  0.0000000  0.000000000  0.00000000000  0.000000000000000
%i    0    0    0    0      0      0      0      0         0
%i    0    0    0    0      0      0      0      0         0
/* INFORMATION & ANALYSIS CENTER (IAC)            FINAL DATA
/* S/V CLOCKS ARE ALIGNED TO GPS & GLONASS TIME RESPECTIVELY
/* USING THE BROADCAST EPHEMERIS                            
/* PCV:IGS14_2062 OL/AL:FES2004  NONE     YN ORB:CoN CLK:CoN
*  2019 08 22 19 45  0.00000000
PC01 -32298.632890  27102.493017    696.559691    193.390287
PC02   4287.954988  41932.080353   -924.345392    -45.027077
PC03 -14763.723304  39476.109009   -365.074425   -136.659626
PC04 -39610.215423  14477.542460    149.142995    121.695050
PC05  21957.879697  35953.979881  -1117.191851   -257.205483
PC06 -12730.685119  38814.683316  -9202.757241    458.101626
PC07  -8608.202099  25300.568090  32839.766107    -82.258289
PC08 -25395.562935  25165.738262 -22526.593212    165.038035
PC09  -5365.699276  41466.374810   3907.575416    -89.788908
PC10   4342.483022  30510.486235  29112.464987   -105.823158
PC11 -16192.893166  22457.161408   3822.336305    198.635833
PC12 -16095.702916  -2165.255957  22765.454631   -233.178838
PC13 -11399.009280  26820.305159 -30521.711587   -930.621646
PC14 -15072.119038   5758.430359 -22708.103019    508.551446
PC16 -11400.326728  39644.841136  -8272.783789   -876.567325
PC19    462.232412 -22227.818253  16878.951901    179.084620
PC20  14135.819730  -7430.669708  22902.119298      6.637538
PC21 -19737.219634 -12191.419486 -15475.103062    349.155660
PC22 -13638.331710 -24309.111750    894.587696    -18.359579
PC23  12878.005114  14374.682108  20173.838692   -927.627208
PC24 -24885.795992   7174.444828  10411.531380   -924.686703
PC25  -7867.187423  15540.938082  21806.585333   -323.418038
PC26 -26869.416013  -4044.540582  -6412.797627    361.426117
PC27  16440.897235   2751.756466 -22398.609541    176.381821
PC28   3807.219929  19770.483036 -19328.929224    170.374688
PC29  10003.656020 -25561.131943   5014.333864    108.029844
PC30  18841.849612 -16388.800281 -12473.247138    179.915315
PC32  19855.996800  12025.540635  15509.725851   -908.959440
PC33   -376.742903  22239.033322 -16859.831717   -328.330907
PC34 -18863.171196  16516.128831  12229.092772    -18.354792
PC35  -4443.452943 -19716.152116  19253.363487   -258.578299
PC36   8409.808762 -15298.809758 -21741.686387   -733.466060
PE01 -13840.073969 -18918.341233 -18062.753956   -674.130226
PE02  13907.468264  18920.614454  18027.010668     75.229338
PE03   7294.937565  28169.691384   5478.506978   -202.462495
PE04 -16264.807952 -13951.589469 -20411.162825   -349.903584
PE05  -6042.163853  25992.102395 -12810.233106   -455.211355
PE07  15781.872481  -8618.607434  23519.717348   -251.410989
PE08  16288.624433  13715.413605  20573.014368   6303.526812
PE09 -15547.031609   8806.611864 -23593.584528   6339.723647
PE11 -25387.998904  13314.022315   7339.673721   5616.806152
PE12 -19425.634156  -3557.450688  22041.667737   6235.371311
PE13  25330.669447 -13354.411564  -7495.053596    391.808315
PE14  19369.067865   7495.255368 -25168.976358   -691.411367
PE15  19637.051114   3092.957093 -21929.605664    898.362414
PE18 -13914.985856  -5120.833736  17992.251420   -786.043193
PE19  -6043.826871 -28753.936705  -3579.116816     -4.390185
PE21   7470.229593 -14558.691752 -24662.461758   -550.841006
PE24 -24297.906806   1684.227483  16821.429876   5910.384166
PE25  -7529.103378  14538.813977  24669.879484   1702.563210
PE26  16222.078802 -21961.422054  11419.018340   4193.843961
PE27  24388.179415  -1635.458622 -16691.655324    402.818574
PE30  26916.055401  12284.665576    913.284710   4607.745016
PE31 -26946.774168 -12188.119030  -1020.608997   -467.607708
PE33  -2425.448442 -17766.039929  23550.922777   -469.844315
PE36 -16185.438579  22018.286374 -11378.994879    671.564346
PG01    244.571204  15402.596789 -21798.543386   -104.767731
PG02  18973.377379 -15631.464219  10485.965630   -288.669427
PG03   9936.531788  21003.174062 -13003.132206     -3.768915
PG04 -12917.161048  16180.500974  16016.714198    127.210872
PG05   9528.831030 -12068.265773  21522.122377     -0.813371
PG06  25648.930600  -5697.993026  -3955.806488    -33.191797
PG07  16412.826186   9126.600133  19240.781542    -90.627407
PG08  -4577.368994  26037.816974   -647.390022     -3.692193
PG09   9694.174034  16998.285738  17912.281071    -12.788010
PG10 -22191.751289  -8683.052165 -11883.797773    -24.195596
PG11  -1742.157851  20535.020865 -17429.784836   -528.059022
PG12  -5647.459087 -20854.651600 -15769.066244    211.500155
PG13  12969.584589 -21826.206946   7583.971905    -48.334434
PG14 -16134.333125  10227.732541 -18048.890861    -65.242699
PG15   1805.265975 -26260.641491  -1392.611624   -292.324552
PG16 -11025.054719   9668.353484  21958.959307    -67.311824
PG17  15071.283229  -1328.193805 -21406.866518    111.595492
PG18  -8798.426031  17421.059622 -18471.271659     79.909680
PG19  16305.496974  -7810.617631 -19773.094256   -277.413875
PG20 -22801.667530 -13609.855130  -2393.454507    526.572898
PG21 -19878.462359  -5513.271636  17423.116896   -131.849843
PG22   3546.174470  19356.616241 -17656.487844   -746.798492
PG23   2131.909812  24754.956737   9156.086997   -170.866837
PG24   2044.153523 -16913.361854 -20460.740804     -1.137747
PG25 -17253.363052 -19862.669543  -4733.212551     -8.724579
PG26 -18479.237639   2155.877510  19004.794079     21.302749
PG27 -12101.798114  20406.006541  11511.880227    -31.960674
PG28  20821.677266  10714.423428 -11831.560011    764.144322
PG29  -6001.404298 -19725.287309  16696.096419    118.009928
PG30  23996.188957   1880.742258  11480.108472    -25.027707
PG31 -25980.244313   6295.986387  -1992.253286     15.545919
PG32 -15621.582649   1342.854832 -21360.131092     29.072468
PJ01 -19215.264099  23308.981143 -24817.159216   -256.360374
PJ02 -29615.332523  21537.261605  25665.453727     -2.787941
PJ03 -30227.376887  26736.601025  17376.528681     -0.882346
PJ07 -25393.206436  33670.365559    -42.863564     -0.053496
PR01  -8972.235466   7315.892193 -22728.842235     48.556689
PR02   2539.561209  22809.318296 -11038.215244    384.526664
PR03  11129.180468  22025.378500   6406.772531      0.420707
PR04  13152.231264   7918.482419  20382.509080    318.694469
PR05   7688.318468  -9633.579246  22345.885240     34.335348
PR07 -11248.056350 -21873.257706  -6799.364961    -25.460397
PR08 -13209.951985  -8784.995103 -19925.418146     16.035205
PR09  -1224.527170 -11485.713420 -22719.104197     86.739564
PR11 -25131.018409  -4068.117553   1061.276883    -76.877540
PR12 -19073.859065   4405.428045  16395.045325     55.024509
PR13  -1178.846307  10856.461594  23041.760503    -27.458699
PR14  16688.982919  10842.849460  15986.759094     42.217180
PR15  25094.697823   4592.438000   -102.572854    103.633387
PR16  18775.867019  -4969.728307 -16487.782813      5.704122
PR17   2865.148631  12279.517521 -22178.552848    254.056312
PR18  14522.099648  -2427.195545 -20835.905740      4.762795
PR19  18688.122134 -15185.737279  -8407.460022    -49.722830
PR20  11473.330384 -20036.521946  10886.708612   -388.203998
PR21  -3422.603256 -11647.332436  22423.281608    -67.644581
PR22 -15738.010372   4797.427458  19446.390669    -34.266257
PR23 -17505.620377  18349.639340   2756.709257    249.000393
PR24  -9702.787518  19918.812850 -12663.689289   -183.940529
EOF
